O3B FM5                 
1 39188U 13031A   22229.04401899 -.00000027  00000+0  00000+0 0  9997
2 39188   0.0561  21.8095 0002572 126.5234 211.6800  5.00115272166999
O3B FM4                 
1 39189U 13031B   22229.29996744 -.00000027  00000+0  00000+0 0  9993
2 39189   0.0558 352.6499 0002534 155.6597 211.7032  5.00115937167113
O3B FM2                 
1 39190U 13031C   22227.59243491 -.00000027  00000+0  00000+0 0  9990
2 39190   0.0585 348.2290 0002573 157.3160 214.4685  5.00116814166997
O3B PFM                 
1 39191U 13031D   22228.61811155 -.00000027  00000+0  00000+0 0  9993
2 39191   0.0529  12.7825 0002647 132.7172 214.5147  5.00115689166594
O3B FM3                 
1 40079U 14038A   22229.07264594 -.00000027  00000+0  00000+0 0  9998
2 40079   0.0550   0.7458 0005024 138.8578 220.4312  5.00115384143006
O3B FM7                 
1 40080U 14038B   22225.62057735 -.00000027  00000+0  00000+0 0  9994
2 40080   0.0587 358.6075 0001165 183.0126 178.3758  5.00115409147660
O3B FM6                 
1 40081U 14038C   22227.84574817 -.00000027  00000+0  00000+0 0  9996
2 40081   0.0543 359.9478 0002692 145.4409 214.6257  5.00115414147727
O3B FM8                 
1 40082U 14038D   22229.29892682 -.00000027  00000+0  00000+0 0  9991
2 40082   0.0538 356.5017 0002674 147.0418 216.4722  5.00115675147919
O3B FM10                
1 40348U 14083A   22229.32495155 -.00000027  00000+0  00000+0 0  9994
2 40348   0.0496   8.4292 0002625 137.5919 213.9932  5.00115133139860
O3B FM11                
1 40349U 14083B   22229.13853081 -.00000027  00000+0  00000+0 0  9990
2 40349   0.0542   9.5087 0002312 151.2194 199.2782  5.00115406139871
O3B FM12                
1 40350U 14083C   22229.56551207 -.00000027  00000+0  00000+0 0  9994
2 40350   0.0539   8.5172 0002709 142.0409 209.4548  5.00115285139903
O3B FM9                 
1 40351U 14083D   22228.99277585 -.00000027  00000+0  00000+0 0  9995
2 40351   0.0552  10.1170 0002584 136.8177 213.0789  5.00115611140026
DIAMOND RED             
1 42783U 17036U   22229.42423163  .00007274  00000+0  26586-3 0  9992
2 42783  97.1953 268.1429 0012141 111.0829 249.1711 15.28306264286258
DIAMOND GREEN           
1 42785U 17036W   22229.09693596  .00007662  00000+0  28027-3 0  9999
2 42785  97.1952 267.8898 0011966 113.2067 247.0434 15.28262555286272
DIAMOND BLUE            
1 42786U 17036X   22229.35786088  .00006920  00000+0  25337-3 0  9995
2 42786  97.1957 268.1342 0012018 112.9868 247.2641 15.28268324286317
LEO VANTAGE 1           
1 43113U 18004C   22230.21844724  .00001427  00000+0  12049-3 0  9998
2 43113  99.2453 316.8330 0401057   5.9107 354.6617 14.54040146233211
O3B FM15                
1 43231U 18024A   22228.65893762 -.00000027  00000+0  00000+0 0  9998
2 43231   0.0461   7.9414 0002889 140.1090 211.9644  5.00115975 80966
O3B FM16                
1 43232U 18024B   22227.91275621 -.00000027  00000+0  00000+0 0  9995
2 43232   0.0418   8.6884 0002864 139.1011 212.2249  5.00115867 80844
O3B FM14                
1 43233U 18024C   22227.95235461 -.00000027  00000+0  00000+0 0  9998
2 43233   0.0404   7.9461 0002680 141.3506 210.7159  5.00115283 80859
O3B FM13                
1 43234U 18024D   22230.00475872 -.00000027  00000+0  00000+0 0  9991
2 43234   0.0493  34.2331 0003569 124.1097 201.6702  5.00115038 81197
O3B FM20                
1 44112U 19020A   22228.77863833 -.00000027  00000+0  00000+0 0  9993
2 44112   0.0495   7.5642 0002937 147.9227 204.5244  5.00115457 61511
O3B FM19                
1 44113U 19020B   22228.60552172 -.00000027  00000+0  00000+0 0  9997
2 44113   0.0586  21.2174 0001763 132.3023 206.4865  5.00115027 61360
O3B FM17                
1 44114U 19020C   22228.48617405 -.00000027  00000+0  00000+0 0  9995
2 44114   0.0414 344.2198 0003001 164.7183 211.0768  5.00115531 61452
O3B FM18                
1 44115U 19020D   22228.43270442 -.00000027  00000+0  00000+0 0  9997
2 44115   0.0496   7.9871 0002871 137.3549 214.6738  5.00115781 61565
SALSAT                  
1 46495U 20068K   22229.47955211  .00001479  00000+0  10917-3 0  9996
2 46495  97.7309 170.8149 0018152  72.5077 287.8131 15.04719558103368
